{"type": "FeatureCollection", "features": [{"type": "Feature", "properties": {"DISTRICT": "Ajmer", "Name_capitalized": "AJMER", "Unique_ID": 532, "Unique_ID_1": "IND-ADM2-76128533B44869815", "Shape_Length": 7.24747619081209, "Shape_Area": 0.765686782000001}, "geometry": {"type": "MultiPolygon", "coordinates": [[[[74.29181, 26.44908], [74.30655, 26.33156], [74.25459, 26.28635], [74.3119, 26.25183], [74.36565, 26.29159], [74.37774, 26.20648], [74.30366, 26.185], [74.28861, 26.12088], [74.2221, 26.04172], [74.184, 26.02962], [74.13248, 25.9634], [74.16138, 25.92883], [74.13134, 25.88345], [74.19147, 25.88737], [74.23701, 25.90735], [74.29364, 25.98129], [74.34695, 26.02274], [74.39182, 26.0055], [74.38997, 25.96242], [74.43638, 25.92442], [74.52058, 25.91237], [74.52502, 25.86704], [74.65595, 25.91482], [74.72515, 25.91672], [74.77184, 25.88245], [74.81765, 25.86864], [74.90555, 25.88098], [74.94622, 25.86192], [75.01769, 25.85619], [75.01115, 25.80742], [75.05484, 25.77595], [75.1098, 25.69361], [75.14982, 25.71983], [75.21706, 25.68744], [75.26198, 25.69788], [75.32002, 25.76392], [75.34084, 25.811], [75.31226, 25.85368], [75.26448, 25.85308], [75.25235, 25.93749], [75.30799, 25.94152], [75.32881, 25.99867], [75.35635, 26.01935], [75.30932, 26.0806], [75.34086, 26.13076], [75.2781, 26.13557], [75.24694, 26.07837], [75.18908, 26.10995], [75.18906, 26.16357], [75.15955, 26.18277], [75.14433, 26.24412], [75.11436, 26.28499], [75.13934, 26.31778], [75.13069, 26.39693], [75.16528, 26.42058], [75.17096, 26.46209], [75.15385, 26.50018], [75.11688, 26.52358], [75.10528, 26.55599], [75.06314, 26.55594], [75.0827, 26.6099], [75.06866, 26.6506], [75.001, 26.68651], [74.94161, 26.74978], [74.9177, 26.83693], [74.95749, 26.84684], [74.97778, 26.89033], [74.98443, 26.94124], [74.91238, 26.97592], [74.85309, 26.9751], [74.8058, 26.85273], [74.77513, 26.84881], [74.78208, 26.7987], [74.75039, 26.77055], [74.69882, 26.77121], [74.66639, 26.71142], [74.72457, 26.70194], [74.72291, 26.67569], [74.67495, 26.59405], [74.61969, 26.56594], [74.59431, 26.62916], [74.48224, 26.4975], [74.37643, 26.48886], [74.33848, 26.44298], [74.29181, 26.44908]]], [[[73.90727, 25.68539], [73.95011, 25.65079], [74.01387, 25.70385], [74.00033, 25.72648], [74.09435, 25.76724], [74.05734, 25.82905], [74.00995, 25.8636], [73.95209, 25.84099], [73.9333, 25.76992], [73.90768, 25.74057], [73.90727, 25.68539]]]]}}, {"type": "Feature", "properties": {"DISTRICT": "Alwar", "Name_capitalized": "ALWAR", "Unique_ID": 648, "Unique_ID_1": "IND-ADM2-76128533B18976656", "Shape_Length": 8.11601678169274, "Shape_Area": 0.758920746299996}, "geometry": {"type": "Polygon", "coordinates": [[[76.85367, 28.22059], [76.80599, 28.20558], [76.79592, 28.14841], [76.74434, 28.12154], [76.71642, 28.12778], [76.6524, 28.0616], [76.66891, 28.01381], [76.60687, 28.00372], [76.56448, 27.96588], [76.53102, 28.04012], [76.46232, 28.0405], [76.50008, 28.10019], [76.47652, 28.14854], [76.40162, 28.14498], [76.3124, 28.17802], [76.33502, 28.13344], [76.32261, 28.01577], [76.26178, 28.06749], [76.22983, 28.04803], [76.19138, 28.05633], [76.15944, 27.98709], [76.18848, 27.96537], [76.17004, 27.90326], [76.22686, 27.83324], [76.26874, 27.83484], [76.27836, 27.80271], [76.24703, 27.76128], [76.26049, 27.7], [76.24255, 27.62459], [76.2034, 27.62205], [76.21814, 27.55282], [76.24794, 27.48844], [76.23476, 27.41759], [76.17716, 27.31258], [76.12551, 27.23814], [76.18592, 27.1846], [76.20418, 27.11894], [76.28165, 27.17989], [76.28922, 27.0872], [76.3044, 27.06504], [76.36513, 27.05618], [76.4339, 27.13318], [76.46519, 27.07793], [76.49505, 27.11361], [76.55083, 27.1317], [76.56323, 27.17495], [76.62206, 27.17726], [76.64442, 27.09481], [76.70919, 27.11565], [76.8084, 27.10502], [76.85151, 27.17257], [76.87287, 27.23127], [76.91031, 27.2069], [76.90168, 27.16282], [76.96562, 27.14613], [77.09718, 27.17151], [77.04688, 27.21699], [77.12415, 27.25228], [77.15045, 27.31347], [77.14146, 27.34631], [77.07726, 27.38881], [77.04638, 27.37707], [77.00808, 27.41546], [76.96069, 27.42749], [76.96778, 27.46465], [77.02731, 27.4488], [77.02666, 27.49637], [77.06474, 27.52821], [77.04944, 27.55491], [77.00264, 27.56565], [76.97386, 27.54745], [76.93707, 27.61242], [76.98442, 27.61383], [76.97885, 27.65408], [76.89895, 27.67782], [76.90299, 27.77534], [76.9437, 27.85357], [76.93149, 27.95304], [76.9406, 28.04235], [76.96618, 28.12849], [76.85367, 28.22059]]]}}, {"type": "Feature", "properties": {"DISTRICT": "Banswara", "Name_capitalized": "BANSWARA", "Unique_ID": 652, "Unique_ID_1": "IND-ADM2-76128533B44383166", "Shape_Length": 3.64527996369223, "Shape_Area": 0.3990100182}, "geometry": {"type": "Polygon", "coordinates": [[[74.77434, 23.54077], [74.77392, 23.58908], [74.72253, 23.61502], [74.67416, 23.66557], [74.59043, 23.62606], [74.53164, 23.63545], [74.54705, 23.70982], [74.54722, 23.86203], [74.48085, 23.92443], [74.43506, 23.9064], [74.3851, 23.90611], [74.31858, 23.85726], [74.23971, 23.81481], [74.14872, 23.78156], [74.12242, 23.71172], [74.13698, 23.69209], [74.1195, 23.61006], [74.07216, 23.59922], [74.03341, 23.54455], [74.01352, 23.4415], [73.96053, 23.37995], [74.00089, 23.33482], [74.04689, 23.2935], [74.1049, 23.29249], [74.13445, 23.26306], [74.12524, 23.17722], [74.18131, 23.15053], [74.206, 23.19032], [74.24832, 23.17664], [74.28671, 23.11692], [74.28105, 23.09321], [74.32135, 23.06085], [74.39, 23.11006], [74.46622, 23.08324], [74.53461, 23.09941], [74.54493, 23.12995], [74.60789, 23.14286], [74.66877, 23.19921], [74.71524, 23.19234], [74.73891, 23.22567], [74.70092, 23.2698], [74.63174, 23.26113], [74.5351, 23.30734], [74.54535, 23.36159], [74.57203, 23.38108], [74.57368, 23.42028], [74.61317, 23.45904], [74.66931, 23.4815], [74.77434, 23.54077]]]}}, {"type": "Feature", "properties": {"DISTRICT": "Baran", "Name_capitalized": "BARAN", "Unique_ID": 649, "Unique_ID_1": "IND-ADM2-76128533B79784138", "Shape_Length": 5.69272384142674, "Shape_Area": 0.589451044599993}, "geometry": {"type": "Polygon", "coordinates": [[[77.30966, 25.07937], [77.39301, 25.11715], [77.39711, 25.18334], [77.41287, 25.22141], [77.35612, 25.26688], [77.27639, 25.40407], [77.23208, 25.37433], [77.22375, 25.33288], [77.16307, 25.30854], [77.19795, 25.21877], [77.16674, 25.19834], [77.08245, 25.24905], [77.03086, 25.29687], [76.96478, 25.29238], [76.84891, 25.32577], [76.77866, 25.31118], [76.68684, 25.34078], [76.60824, 25.3843], [76.57996, 25.43202], [76.56231, 25.41411], [76.45005, 25.39954], [76.44177, 25.37948], [76.37208, 25.38872], [76.332, 25.37459], [76.28885, 25.24673], [76.2547, 25.23791], [76.25554, 25.18904], [76.23562, 25.16046], [76.21884, 25.0844], [76.24841, 25.041], [76.32496, 24.95901], [76.3411, 24.98379], [76.42224, 24.9773], [76.45289, 24.92275], [76.48736, 24.92055], [76.57623, 24.85846], [76.55765, 24.80421], [76.49113, 24.82216], [76.44388, 24.78323], [76.47976, 24.66456], [76.5321, 24.66263], [76.52237, 24.59019], [76.53899, 24.56887], [76.53771, 24.51428], [76.57936, 24.49248], [76.58093, 24.46455], [76.63669, 24.41433], [76.67631, 24.43926], [76.70632, 24.40827], [76.75763, 24.4487], [76.80125, 24.43305], [76.84618, 24.43852], [76.85638, 24.4648], [76.81965, 24.53003], [76.85116, 24.54666], [76.92357, 24.53123], [76.91979, 24.48331], [76.96534, 24.45589], [76.99775, 24.46911], [77.05567, 24.52214], [77.07012, 24.56549], [77.06495, 24.63795], [77.02476, 24.71045], [76.97745, 24.72716], [76.95728, 24.76102], [76.91159, 24.74068], [76.85207, 24.76551], [76.80764, 24.82206], [76.83704, 24.83573], [76.90051, 24.83498], [76.95451, 24.8683], [76.93021, 24.90578], [76.87764, 24.95001], [76.87495, 25.00648], [76.97445, 25.05126], [76.9895, 25.07287], [77.08316, 25.05328], [77.16377, 25.08353], [77.17568, 25.10896], [77.26845, 25.11446], [77.30966, 25.07937]]]}}, {"type": "Feature", "properties": {"DISTRICT": "Barmer", "Name_capitalized": "BARMER", "Unique_ID": 519, "Unique_ID_1": "IND-ADM2-76128533B18348161", "Shape_Length": 9.78222225643206, "Shape_Area": 2.55777242889999}, "geometry": {"type": "Polygon", "coordinates": [[[71.1894, 24.64876], [71.21093, 24.69928], [71.26301, 24.74519], [71.25583, 24.79577], [71.33174, 24.85098], [71.3423, 24.93447], [71.50953, 25.00882], [71.55766, 24.98489], [71.59001, 25.02646], [71.6351, 25.03294], [71.68082, 24.98742], [71.72844, 25.03214], [71.73819, 25.06948], [71.79396, 25.08449], [71.83919, 25.14853], [71.85084, 25.20734], [71.88216, 25.22512], [71.89004, 25.26224], [71.93589, 25.28457], [71.9513, 25.32149], [71.92208, 25.34516], [72.00165, 25.44541], [72.03473, 25.47635], [72.09025, 25.46552], [72.10543, 25.42463], [72.16171, 25.43445], [72.22427, 25.40569], [72.25148, 25.41635], [72.29452, 25.39173], [72.33338, 25.40352], [72.3575, 25.45384], [72.41272, 25.43631], [72.46423, 25.45456], [72.51286, 25.50615], [72.56313, 25.53153], [72.55007, 25.56107], [72.5872, 25.60223], [72.72167, 25.60917], [72.68767, 25.67003], [72.72291, 25.6895], [72.75648, 25.74161], [72.72543, 25.75564], [72.7578, 25.80895], [72.77897, 25.80169], [72.84979, 25.84192], [72.83552, 25.86322], [72.80731, 25.85302], [72.72595, 25.92139], [72.69284, 25.92984], [72.61994, 25.97812], [72.61897, 26.00678], [72.68577, 26.02964], [72.69548, 26.10608], [72.68946, 26.18636], [72.63485, 26.22834], [72.5974, 26.28], [72.55352, 26.26463], [72.49291, 26.29939], [72.42831, 26.28655], [72.41064, 26.23911], [72.37554, 26.22557], [72.34171, 26.24455], [72.30971, 26.21686], [72.25627, 26.21056], [72.16077, 26.28111], [72.15442, 26.30838], [72.09895, 26.31912], [72.07401, 26.34956], [72.02577, 26.34652], [71.9846, 26.32257], [71.8961, 26.30031], [71.88593, 26.34098], [71.84375, 26.37397], [71.81268, 26.33246], [71.75856, 26.34753], [71.70695, 26.39064], [71.67707, 26.38489], [71.6298, 26.42015], [71.61561, 26.48241], [71.57907, 26.50827], [71.52099, 26.48846], [71.49189, 26.45702], [71.46584, 26.49802], [71.41833, 26.48661], [71.3267, 26.42569], [71.29023, 26.4667], [71.22307, 26.44667], [71.14034, 26.30896], [71.07871, 26.32539], [71.04915, 26.28453], [71.02148, 26.2836], [70.95532, 26.24925], [70.99516, 26.2216], [71.05274, 26.14253], [71.02686, 26.11546], [70.94434, 26.08248], [70.8786, 26.12833], [70.75321, 26.14943], [70.7121, 26.17243], [70.71769, 26.21233], [70.6624, 26.20019], [70.56848, 26.20274], [70.49643, 26.17675], [70.43269, 26.18136], [70.4118, 26.20069], [70.36809, 26.14839], [70.26681, 26.16566], [70.22586, 26.12296], [70.17998, 26.15635], [70.14239, 26.15864], [70.08415, 26.08309], [70.09853, 25.93984], [70.17438, 25.82786], [70.22211, 25.79316], [70.26883, 25.71392], [70.38691, 25.67375], [70.52842, 25.68358], [70.60811, 25.71496], [70.64688, 25.713], [70.6743, 25.6755], [70.66784, 25.53055], [70.67866, 25.52307], [70.66534, 25.39702], [70.73686, 25.33227], [70.75176, 25.27774], [70.88868, 25.14757], [70.91774, 25.00657], [70.9456, 24.9227], [70.98862, 24.86947], [71.0657, 24.71739], [71.09727, 24.68884], [71.11303, 24.67051], [71.1894, 24.64876]]]}}, {"type": "Feature", "properties": {"DISTRICT": "Bharatpur", "Name_capitalized": "BHARATPUR", "Unique_ID": 533, "Unique_ID_1": "IND-ADM2-76128533B81196088", "Shape_Length": 6.33550829059487, "Shape_Area": 0.462318095800004}, "geometry": {"type": "Polygon", "coordinates": [[[76.97885, 27.65408], [76.98442, 27.61383], [76.93707, 27.61242], [76.97386, 27.54745], [77.00264, 27.56565], [77.04944, 27.55491], [77.06474, 27.52821], [77.02666, 27.49637], [77.02731, 27.4488], [76.96778, 27.46465], [76.96069, 27.42749], [77.00808, 27.41546], [77.04638, 27.37707], [77.07726, 27.38881], [77.14146, 27.34631], [77.15045, 27.31347], [77.12415, 27.25228], [77.04688, 27.21699], [77.09718, 27.17151], [76.96562, 27.14613], [76.99637, 27.10711], [76.9755, 27.07457], [77.01034, 27.02746], [77.01828, 26.92843], [77.07825, 26.86073], [77.10609, 26.87381], [77.13633, 26.83886], [77.21106, 26.80975], [77.25973, 26.81862], [77.29486, 26.77962], [77.35899, 26.79507], [77.3497, 26.71156], [77.38477, 26.70702], [77.45655, 26.74123], [77.42581, 26.83727], [77.49092, 26.89821], [77.58831, 26.92526], [77.71232, 26.99464], [77.66576, 27.01707], [77.60753, 27.02319], [77.53799, 27.06156], [77.55322, 27.10996], [77.60611, 27.12338], [77.62372, 27.1691], [77.66356, 27.16988], [77.64816, 27.24143], [77.61563, 27.26701], [77.62545, 27.3326], [77.58362, 27.32104], [77.50634, 27.37569], [77.44093, 27.39357], [77.43874, 27.45641], [77.40555, 27.47219], [77.38537, 27.51298], [77.34941, 27.51917], [77.33502, 27.59128], [77.35167, 27.64742], [77.34335, 27.70231], [77.31367, 27.78242], [77.28468, 27.80164], [77.24362, 27.78428], [77.20398, 27.82356], [77.18398, 27.78678], [77.10917, 27.78548], [77.0455, 27.82098], [77.04693, 27.74318], [77.00196, 27.73687], [76.97885, 27.65408]]]}}, {"type": "Feature", "properties": {"DISTRICT": "Bhilwara", "Name_capitalized": "BHILWARA", "Unique_ID": 525, "Unique_ID_1": "IND-ADM2-76128533B61779893", "Shape_Length": 6.67737309027367, "Shape_Area": 0.939933887600003}, "geometry": {"type": "Polygon", "coordinates": [[[75.35399, 25.02125], [75.45369, 25.02589], [75.45641, 25.04989], [75.40919, 25.10432], [75.4475, 25.14064], [75.4574, 25.24235], [75.44143, 25.27547], [75.34546, 25.32301], [75.30842, 25.41984], [75.37448, 25.50251], [75.36144, 25.53448], [75.43612, 25.62113], [75.42444, 25.68621], [75.46531, 25.71855], [75.4461, 25.74081], [75.32002, 25.76392], [75.26198, 25.69788], [75.21706, 25.68744], [75.14982, 25.71983], [75.1098, 25.69361], [75.05484, 25.77595], [75.01115, 25.80742], [75.01769, 25.85619], [74.94622, 25.86192], [74.90555, 25.88098], [74.81765, 25.86864], [74.77184, 25.88245], [74.72515, 25.91672], [74.65595, 25.91482], [74.52502, 25.86704], [74.52058, 25.91237], [74.43638, 25.92442], [74.38997, 25.96242], [74.32912, 25.93001], [74.30404, 25.89359], [74.22576, 25.84366], [74.19903, 25.85438], [74.164, 25.80742], [74.20008, 25.79887], [74.19694, 25.73942], [74.09937, 25.71622], [74.09509, 25.67349], [74.11835, 25.63641], [74.10618, 25.59192], [74.0672, 25.58008], [74.09951, 25.51516], [74.02436, 25.45322], [74.05957, 25.43962], [74.03316, 25.38523], [74.02799, 25.27233], [74.05119, 25.23649], [74.12501, 25.2424], [74.10285, 25.18526], [74.06654, 25.15728], [74.18268, 25.11291], [74.18989, 25.06034], [74.21762, 25.04851], [74.26054, 25.06529], [74.41602, 25.20271], [74.45978, 25.16743], [74.49782, 25.20671], [74.55463, 25.17682], [74.57165, 25.1451], [74.61438, 25.14313], [74.65946, 25.18278], [74.6959, 25.18049], [74.72236, 25.20623], [74.77778, 25.20631], [74.79639, 25.15407], [74.83753, 25.14622], [74.86962, 25.17771], [74.93013, 25.12714], [74.97517, 25.10501], [75.03584, 25.12647], [75.20596, 25.08961], [75.19753, 25.03427], [75.31384, 25.04253], [75.35399, 25.02125]]]}}, {"type": "Feature", "properties": {"DISTRICT": "Bikaner", "Name_capitalized": "BIKANER", "Unique_ID": 523, "Unique_ID_1": "IND-ADM2-76128533B67893557", "Shape_Length": 10.1936458140232, "Shape_Area": 2.76683737504999}, "geometry": {"type": "Polygon", "coordinates": [[[72.28537, 27.54877], [72.25312, 27.5073], [72.2676, 27.45746], [72.32813, 27.5137], [72.43877, 27.56159], [72.45071, 27.58581], [72.50292, 27.58363], [72.56144, 27.61849], [72.60515, 27.60666], [72.62554, 27.57113], [72.67254, 27.54258], [72.69729, 27.60443], [72.72927, 27.55359], [72.83677, 27.57972], [72.83199, 27.46618], [72.88385, 27.47697], [72.90335, 27.41519], [72.98879, 27.38389], [73.04368, 27.41045], [73.12182, 27.40813], [73.1465, 27.39019], [73.16425, 27.29488], [73.20944, 27.27781], [73.24356, 27.32609], [73.26486, 27.28489], [73.33431, 27.1993], [73.3865, 27.2692], [73.50535, 27.33339], [73.49579, 27.36046], [73.5073, 27.43381], [73.54087, 27.49408], [73.60884, 27.49252], [73.6194, 27.54215], [73.66863, 27.55778], [73.69267, 27.52513], [73.743, 27.54267], [73.7819, 27.50877], [73.85267, 27.55111], [73.85978, 27.60774], [73.83734, 27.69425], [73.832, 27.77081], [73.91799, 27.77387], [73.9692, 27.79573], [73.98334, 27.74968], [74.05027, 27.72057], [74.12808, 27.78878], [74.21785, 27.81182], [74.22523, 27.85054], [74.20876, 27.89805], [74.23401, 27.92048], [74.23973, 28.00083], [74.28979, 28.04068], [74.29899, 28.13489], [74.34765, 28.15973], [74.35302, 28.20427], [74.30957, 28.23147], [74.23982, 28.2309], [74.21575, 28.25668], [74.20146, 28.3119], [74.16663, 28.30928], [74.12061, 28.33861], [74.04752, 28.34554], [74.03261, 28.39872], [74.06866, 28.41581], [74.06169, 28.52904], [74.10948, 28.5891], [74.08385, 28.65025], [74.10078, 28.67942], [74.19545, 28.7114], [74.16192, 28.77714], [74.13702, 28.79553], [74.0977, 28.78293], [74.13132, 28.8752], [74.11322, 28.94015], [74.03014, 29.00709], [74.02738, 28.93324], [73.97621, 28.9036], [73.95813, 28.97179], [73.8781, 28.94085], [73.79962, 29.00703], [73.77349, 29.05164], [73.73189, 29.02629], [73.69094, 29.0356], [73.65741, 29.01843], [73.62519, 29.03728], [73.56973, 28.99613], [73.48853, 29.01187], [73.42838, 28.99176], [73.38885, 29.01007], [73.34658, 29.0058], [73.28144, 28.94032], [73.229, 28.92963], [73.19856, 28.88409], [73.20652, 28.85328], [73.11746, 28.76687], [73.04658, 28.74841], [73.0047, 28.71192], [72.95884, 28.73977], [72.93562, 28.72855], [72.76659, 28.79973], [72.74808, 28.78258], [72.64894, 28.90319], [72.47952, 28.81191], [72.40382, 28.78292], [72.29933, 28.66975], [72.20637, 28.3946], [72.13203, 28.31276], [72.00427, 28.21849], [71.92752, 28.12187], [71.89833, 27.96125], [71.95347, 27.91194], [71.99478, 27.9431], [72.03361, 27.94929], [72.14688, 27.87267], [72.15688, 27.77969], [72.09499, 27.73611], [72.11864, 27.71038], [72.19415, 27.69338], [72.22776, 27.65716], [72.30116, 27.70764], [72.34443, 27.69184], [72.28537, 27.54877]]]}}, {"type": "Feature", "properties": {"DISTRICT": "Bundi", "Name_capitalized": "BUNDI", "Unique_ID": 527, "Unique_ID_1": "IND-ADM2-76128533B12519340", "Shape_Length": 4.34332510846024, "Shape_Area": 0.522075419049998}, "geometry": {"type": "Polygon", "coordinates": [[[75.45369, 25.02589], [75.61518, 25.01742], [75.62496, 24.99643], [75.69696, 25.03041], [75.74395, 25.07227], [75.75896, 25.11149], [75.73705, 25.16577], [75.77916, 25.19685], [75.79478, 25.25814], [75.83761, 25.2402], [75.90319, 25.23447], [75.95047, 25.27581], [75.98191, 25.24023], [76.03418, 25.27716], [76.02576, 25.31457], [76.11376, 25.32885], [76.13168, 25.34405], [76.17615, 25.43858], [76.20983, 25.48446], [76.27559, 25.51113], [76.29348, 25.54491], [76.30751, 25.66681], [76.34991, 25.7031], [76.36513, 25.73856], [76.32279, 25.80913], [76.23251, 25.80456], [76.21499, 25.83847], [76.17231, 25.81303], [76.16725, 25.77546], [76.11544, 25.78767], [76.05511, 25.82008], [76.06217, 25.85973], [75.95812, 25.86473], [75.94817, 25.81622], [75.90634, 25.81461], [75.89485, 25.86892], [75.83531, 25.83464], [75.77416, 25.82264], [75.74804, 25.75083], [75.69579, 25.76046], [75.63257, 25.70892], [75.62336, 25.67712], [75.56491, 25.69689], [75.51231, 25.73664], [75.46531, 25.71855], [75.42444, 25.68621], [75.43612, 25.62113], [75.36144, 25.53448], [75.37448, 25.50251], [75.30842, 25.41984], [75.34546, 25.32301], [75.44143, 25.27547], [75.4574, 25.24235], [75.4475, 25.14064], [75.40919, 25.10432], [75.45641, 25.04989], [75.45369, 25.02589]]]}}, {"type": "Feature", "properties": {"DISTRICT": "Chittaurgarh", "Name_capitalized": "CHITTAURGARH", "Unique_ID": 535, "Unique_ID_1": "IND-ADM2-76128533B31004376", "Shape_Length": 8.52842457263457, "Shape_Area": 0.678253306}, "geometry": {"type": "MultiPolygon", "coordinates": [[[[75.19753, 25.03427], [75.20596, 25.08961], [75.03584, 25.12647], [74.97517, 25.10501], [74.93013, 25.12714], [74.86962, 25.17771], [74.83753, 25.14622], [74.79639, 25.15407], [74.77778, 25.20631], [74.72236, 25.20623], [74.6959, 25.18049], [74.65946, 25.18278], [74.61438, 25.14313], [74.57165, 25.1451], [74.55463, 25.17682], [74.49782, 25.20671], [74.45978, 25.16743], [74.41602, 25.20271], [74.26054, 25.06529], [74.32078, 25.03222], [74.27206, 24.99187], [74.2008, 24.97886], [74.18916, 24.93], [74.12256, 24.85204], [74.10767, 24.78132], [74.11997, 24.73965], [74.17663, 24.70187], [74.19126, 24.64818], [74.28015, 24.56543], [74.20986, 24.4617], [74.24038, 24.44914], [74.2858, 24.50138], [74.36687, 24.41072], [74.35418, 24.33746], [74.41571, 24.2924], [74.43929, 24.23551], [74.47036, 24.22159], [74.48867, 24.27907], [74.52122, 24.33221], [74.50089, 24.40361], [74.54361, 24.45363], [74.54364, 24.50298], [74.7148, 24.50633], [74.75834, 24.55182], [74.74963, 24.59401], [74.819, 24.66878], [74.77713, 24.68488], [74.78197, 24.73988], [74.82056, 24.76242], [74.87543, 24.66651], [74.92194, 24.6554], [74.96439, 24.69776], [75.00219, 24.70536], [74.99578, 24.7496], [75.01538, 24.79065], [74.90741, 24.79442], [74.86077, 24.81008], [74.85812, 24.85023], [74.82937, 24.89617], [74.83506, 24.96447], [74.86957, 24.93393], [74.90297, 24.93669], [74.91491, 24.89603], [74.94724, 24.87481], [75.01517, 24.8709], [75.04599, 24.85602], [75.07621, 24.88405], [75.12165, 24.88573], [75.12272, 24.97244], [75.1674, 24.98828], [75.15774, 25.02549], [75.19753, 25.03427]]], [[[75.53076, 24.71423], [75.58529, 24.71897], [75.61673, 24.68468], [75.66267, 24.69792], [75.6836, 24.72402], [75.7455, 24.75649], [75.78994, 24.76162], [75.82269, 24.86711], [75.76194, 24.87658], [75.6674, 24.945], [75.62496, 24.99643], [75.61518, 25.01742], [75.45369, 25.02589], [75.35399, 25.02125], [75.34075, 24.95954], [75.27011, 24.91074], [75.3292, 24.88347], [75.42037, 24.86029], [75.3035, 24.81176], [75.28684, 24.84655], [75.24465, 24.8575], [75.19507, 24.78538], [75.22682, 24.73208], [75.45503, 24.68963], [75.53076, 24.71423]]]]}}, {"type": "Feature", "properties": {"DISTRICT": "Churu", "Name_capitalized": "CHURU", "Unique_ID": 522, "Unique_ID_1": "IND-ADM2-76128533B43890487", "Shape_Length": 8.80821819034142, "Shape_Area": 1.28750138725}, "geometry": {"type": "Polygon", "coordinates": [[[75.47785, 28.93325], [75.4434, 28.99259], [75.40485, 28.96695], [75.30017, 28.98545], [75.3041, 28.94768], [75.24314, 28.92766], [75.24946, 28.88366], [75.22069, 28.85732], [75.10233, 28.87259], [75.04399, 28.84791], [75.03834, 28.93696], [74.99985, 28.91518], [74.92038, 28.89774], [74.90031, 28.9353], [74.86333, 28.9448], [74.81239, 28.93221], [74.77365, 28.89871], [74.80268, 28.83403], [74.7581, 28.82839], [74.74268, 28.85484], [74.69546, 28.83779], [74.47146, 28.82002], [74.44008, 28.83172], [74.42051, 28.88492], [74.27905, 28.80023], [74.19664, 28.80885], [74.16192, 28.77714], [74.19545, 28.7114], [74.10078, 28.67942], [74.08385, 28.65025], [74.10948, 28.5891], [74.06169, 28.52904], [74.06866, 28.41581], [74.03261, 28.39872], [74.04752, 28.34554], [74.12061, 28.33861], [74.16663, 28.30928], [74.20146, 28.3119], [74.21575, 28.25668], [74.23982, 28.2309], [74.30957, 28.23147], [74.35302, 28.20427], [74.34765, 28.15973], [74.29899, 28.13489], [74.28979, 28.04068], [74.23973, 28.00083], [74.23401, 27.92048], [74.20876, 27.89805], [74.22523, 27.85054], [74.21785, 27.81182], [74.12808, 27.78878], [74.05027, 27.72057], [73.98334, 27.74968], [73.9692, 27.79573], [73.91799, 27.77387], [73.832, 27.77081], [73.83734, 27.69425], [73.85978, 27.60774], [73.85267, 27.55111], [73.90324, 27.49631], [73.97484, 27.50597], [74.03133, 27.5349], [74.08321, 27.47907], [74.13833, 27.46064], [74.15517, 27.41059], [74.20573, 27.42381], [74.20706, 27.5061], [74.23972, 27.52646], [74.27698, 27.61028], [74.34481, 27.67939], [74.4431, 27.6916], [74.49659, 27.66564], [74.6078, 27.67635], [74.62932, 27.64824], [74.68206, 27.66723], [74.73201, 27.676], [74.74231, 27.76445], [74.8183, 27.79968], [74.79777, 27.83689], [74.74166, 27.85516], [74.73929, 27.88914], [74.80186, 27.89633], [74.82204, 27.93798], [74.78217, 27.9556], [74.80929, 28.05826], [74.78899, 28.07776], [74.86904, 28.14511], [74.89358, 28.19183], [74.94904, 28.18725], [75.03049, 28.19811], [75.05117, 28.25303], [75.14983, 28.2916], [75.16812, 28.37908], [75.21941, 28.39036], [75.23562, 28.45535], [75.2804, 28.44952], [75.38401, 28.33781], [75.5096, 28.33996], [75.51966, 28.36955], [75.57264, 28.37772], [75.61691, 28.50541], [75.67301, 28.5166], [75.63436, 28.54437], [75.62307, 28.60165], [75.56241, 28.61315], [75.54235, 28.66043], [75.53537, 28.74242], [75.50416, 28.78245], [75.52115, 28.8339], [75.49932, 28.84872], [75.47785, 28.93325]]]}}, {"type": "Feature", "properties": {"DISTRICT": "Dausa", "Name_capitalized": "DAUSA", "Unique_ID": 538, "Unique_ID_1": "IND-ADM2-76128533B62324031", "Shape_Length": 4.34928848057206, "Shape_Area": 0.322258118650003}, "geometry": {"type": "Polygon", "coordinates": [[[76.18141, 26.48574], [76.25125, 26.44085], [76.32381, 26.45425], [76.34314, 26.4105], [76.39445, 26.38804], [76.44472, 26.44146], [76.48242, 26.49866], [76.44537, 26.55048], [76.4076, 26.55275], [76.46996, 26.66918], [76.49515, 26.72963], [76.54082, 26.77229], [76.6193, 26.77643], [76.70317, 26.8439], [76.76835, 26.87724], [76.76243, 26.90062], [76.82608, 26.96651], [76.90172, 26.94315], [76.9437, 26.91032], [76.9578, 26.81522], [77.07825, 26.86073], [77.01828, 26.92843], [77.01034, 27.02746], [76.9755, 27.07457], [76.99637, 27.10711], [76.96562, 27.14613], [76.90168, 27.16282], [76.91031, 27.2069], [76.87287, 27.23127], [76.85151, 27.17257], [76.8084, 27.10502], [76.70919, 27.11565], [76.64442, 27.09481], [76.62206, 27.17726], [76.56323, 27.17495], [76.55083, 27.1317], [76.49505, 27.11361], [76.46519, 27.07793], [76.4339, 27.13318], [76.36513, 27.05618], [76.3044, 27.06504], [76.28922, 27.0872], [76.25558, 27.00877], [76.23431, 26.90979], [76.25475, 26.88784], [76.24214, 26.82108], [76.19024, 26.79495], [76.17448, 26.75494], [76.21264, 26.71923], [76.17151, 26.6786], [76.18378, 26.6505], [76.15426, 26.56754], [76.16141, 26.51475], [76.18141, 26.48574]]]}}, {"type": "Feature", "properties": {"DISTRICT": "Dhaulpur", "Name_capitalized": "DHAULPUR", "Unique_ID": 650, "Unique_ID_1": "IND-ADM2-76128533B13955794", "Shape_Length": 3.60254589963028, "Shape_Area": 0.274348660799997}, "geometry": {"type": "Polygon", "coordinates": [[[78.2188, 26.8305], [78.21381, 26.87164], [78.2617, 26.89885], [78.22496, 26.94817], [78.1239, 26.9491], [78.09574, 26.89627], [78.05114, 26.90969], [77.91837, 26.90856], [77.88022, 26.89981], [77.77382, 26.93232], [77.7326, 26.9173], [77.72445, 26.87569], [77.61699, 26.82891], [77.52908, 26.81644], [77.50637, 26.84236], [77.48862, 26.74835], [77.45655, 26.74123], [77.38477, 26.70702], [77.3497, 26.71156], [77.38847, 26.63349], [77.35879, 26.59386], [77.22782, 26.53102], [77.26332, 26.42875], [77.31161, 26.43964], [77.34859, 26.41431], [77.37394, 26.36615], [77.44018, 26.35961], [77.43864, 26.40336], [77.51378, 26.40748], [77.60709, 26.44874], [77.67916, 26.50422], [77.73517, 26.50982], [77.74757, 26.53715], [77.83249, 26.56114], [77.83879, 26.60707], [77.88782, 26.61469], [77.91, 26.65979], [77.94842, 26.65708], [78.00081, 26.69699], [78.09672, 26.681], [78.11241, 26.79487], [78.18495, 26.78577], [78.18216, 26.82685], [78.2188, 26.8305]]]}}, {"type": "Feature", "properties": {"DISTRICT": "Dungarpur", "Name_capitalized": "DUNGARPUR", "Unique_ID": 534, "Unique_ID_1": "IND-ADM2-76128533B21188588", "Shape_Length": 3.33227999342575, "Shape_Area": 0.335168201400004}, "geometry": {"type": "Polygon", "coordinates": [[[73.63002, 23.45146], [73.7017, 23.45473], [73.71468, 23.41777], [73.76238, 23.45742], [73.78074, 23.43344], [73.82469, 23.4456], [73.8646, 23.39447], [73.89209, 23.3358], [73.93685, 23.34002], [73.96053, 23.37995], [74.01352, 23.4415], [74.03341, 23.54455], [74.07216, 23.59922], [74.1195, 23.61006], [74.13698, 23.69209], [74.12242, 23.71172], [74.14872, 23.78156], [74.23971, 23.81481], [74.31858, 23.85726], [74.3851, 23.90611], [74.36791, 23.9338], [74.28767, 23.95718], [74.22781, 23.90967], [74.20648, 23.95495], [74.13436, 24.01777], [74.08167, 23.96847], [74.05018, 23.98092], [74.00277, 23.96861], [73.91899, 23.98346], [73.85882, 23.93641], [73.73959, 23.94366], [73.69794, 23.95852], [73.67195, 23.9393], [73.59354, 23.96574], [73.51905, 23.93117], [73.47063, 23.84739], [73.40283, 23.80691], [73.36758, 23.81389], [73.44808, 23.75195], [73.47655, 23.70829], [73.50769, 23.69623], [73.49831, 23.63311], [73.52396, 23.60986], [73.56818, 23.65266], [73.61657, 23.65049], [73.65836, 23.62189], [73.63441, 23.53018], [73.63002, 23.45146]]]}}, {"type": "Feature", "properties": {"DISTRICT": "Ganganagar", "Name_capitalized": "GANGANAGAR", "Unique_ID": 520, "Unique_ID_1": "IND-ADM2-76128533B42125726", "Shape_Length": 7.07708824918691, "Shape_Area": 0.98978579695}, "geometry": {"type": "Polygon", "coordinates": [[[73.94608, 30.17762], [73.82721, 30.09169], [73.80659, 30.06796], [73.59718, 30.01897], [73.39707, 29.94595], [73.28201, 29.57159], [73.08436, 29.23618], [73.00431, 29.15282], [72.94588, 29.02792], [72.73202, 28.94758], [72.64894, 28.90319], [72.74808, 28.78258], [72.76659, 28.79973], [72.93562, 28.72855], [72.95884, 28.73977], [73.0047, 28.71192], [73.04658, 28.74841], [73.11746, 28.76687], [73.20652, 28.85328], [73.19856, 28.88409], [73.229, 28.92963], [73.28144, 28.94032], [73.34658, 29.0058], [73.38885, 29.01007], [73.42838, 28.99176], [73.48853, 29.01187], [73.56973, 28.99613], [73.62519, 29.03728], [73.65741, 29.01843], [73.69094, 29.0356], [73.73189, 29.02629], [73.77349, 29.05164], [73.79962, 29.00703], [73.8781, 28.94085], [73.95813, 28.97179], [73.97621, 28.9036], [74.02738, 28.93324], [74.03014, 29.00709], [74.09666, 29.04875], [74.09936, 29.10379], [74.14692, 29.11398], [74.12761, 29.24341], [73.98603, 29.30576], [73.85145, 29.31717], [73.82053, 29.38072], [73.87673, 29.41276], [73.87875, 29.45005], [73.83217, 29.49338], [73.83215, 29.52949], [73.76475, 29.52534], [73.76779, 29.5689], [73.81821, 29.57525], [73.86849, 29.62043], [73.9125, 29.61935], [74.02462, 29.65608], [74.0652, 29.65428], [74.06316, 29.70735], [74.13728, 29.68724], [74.14921, 29.71645], [74.28662, 29.81774], [74.26304, 29.87269], [74.3046, 29.87837], [74.35279, 29.95185], [74.07951, 29.96953], [73.90133, 29.97122], [73.89132, 29.99749], [73.90872, 30.05487], [73.96847, 30.12069], [73.97403, 30.17299], [73.94608, 30.17762]]]}}, {"type": "Feature", "properties": {"DISTRICT": "Hanumangarh", "Name_capitalized": "HANUMANGARH", "Unique_ID": 517, "Unique_ID_1": "IND-ADM2-76128533B60276341", "Shape_Length": 8.03886399913937, "Shape_Area": 0.926361913399996}, "geometry": {"type": "Polygon", "coordinates": [[[75.52816, 28.97035], [75.52191, 29.00438], [75.46083, 29.01424], [75.43237, 29.05619], [75.39218, 29.0626], [75.37967, 29.14211], [75.4077, 29.16962], [75.41291, 29.24263], [75.34153, 29.28101], [75.28709, 29.27165], [75.24613, 29.25013], [75.21108, 29.23453], [75.18851, 29.26809], [75.12056, 29.22275], [75.07628, 29.22966], [75.05097, 29.28602], [74.99969, 29.27102], [74.96214, 29.28046], [74.93926, 29.3619], [74.85157, 29.40346], [74.78855, 29.3613], [74.66, 29.37099], [74.65552, 29.33281], [74.60836, 29.3561], [74.5448, 29.46783], [74.58569, 29.45835], [74.62293, 29.52221], [74.57712, 29.55982], [74.5865, 29.65431], [74.61671, 29.7519], [74.5503, 29.75533], [74.4782, 29.74489], [74.48563, 29.81463], [74.54076, 29.84026], [74.56224, 29.86967], [74.52833, 29.94285], [74.45262, 29.94674], [74.35279, 29.95185], [74.3046, 29.87837], [74.26304, 29.87269], [74.28662, 29.81774], [74.14921, 29.71645], [74.13728, 29.68724], [74.06316, 29.70735], [74.0652, 29.65428], [74.02462, 29.65608], [73.9125, 29.61935], [73.86849, 29.62043], [73.81821, 29.57525], [73.76779, 29.5689], [73.76475, 29.52534], [73.83215, 29.52949], [73.83217, 29.49338], [73.87875, 29.45005], [73.87673, 29.41276], [73.82053, 29.38072], [73.85145, 29.31717], [73.98603, 29.30576], [74.12761, 29.24341], [74.14692, 29.11398], [74.09936, 29.10379], [74.09666, 29.04875], [74.03014, 29.00709], [74.11322, 28.94015], [74.13132, 28.8752], [74.0977, 28.78293], [74.13702, 28.79553], [74.16192, 28.77714], [74.19664, 28.80885], [74.27905, 28.80023], [74.42051, 28.88492], [74.44008, 28.83172], [74.47146, 28.82002], [74.69546, 28.83779], [74.74268, 28.85484], [74.7581, 28.82839], [74.80268, 28.83403], [74.77365, 28.89871], [74.81239, 28.93221], [74.86333, 28.9448], [74.90031, 28.9353], [74.92038, 28.89774], [74.99985, 28.91518], [75.03834, 28.93696], [75.04399, 28.84791], [75.10233, 28.87259], [75.22069, 28.85732], [75.24946, 28.88366], [75.24314, 28.92766], [75.3041, 28.94768], [75.30017, 28.98545], [75.40485, 28.96695], [75.4434, 28.99259], [75.47785, 28.93325], [75.52816, 28.97035]]]}}, {"type": "Feature", "properties": {"DISTRICT": "Jaipur", "Name_capitalized": "JAIPUR", "Unique_ID": 528, "Unique_ID_1": "IND-ADM2-76128533B53582499", "Shape_Length": 7.3030339468469, "Shape_Area": 1.0263152573}, "geometry": {"type": "Polygon", "coordinates": [[[76.08765, 27.84794], [76.09828, 27.83029], [76.03563, 27.73153], [75.99212, 27.70319], [75.98033, 27.65562], [75.94291, 27.62171], [75.96082, 27.59183], [75.93891, 27.49642], [75.87155, 27.41651], [75.79482, 27.38083], [75.74054, 27.40421], [75.72586, 27.36921], [75.66627, 27.36586], [75.61474, 27.31477], [75.57315, 27.3419], [75.53176, 27.34392], [75.47757, 27.28922], [75.43315, 27.30107], [75.39597, 27.28256], [75.37839, 27.23323], [75.31808, 27.1938], [75.31715, 27.1592], [75.34232, 27.13994], [75.34098, 27.09354], [75.22206, 27.08282], [75.24403, 27.01645], [75.20536, 27.00707], [75.20489, 26.97363], [75.16654, 26.93292], [75.01458, 26.94531], [75.01531, 26.89501], [74.97778, 26.89033], [74.95749, 26.84684], [74.9177, 26.83693], [74.94161, 26.74978], [75.001, 26.68651], [75.06866, 26.6506], [75.0827, 26.6099], [75.06314, 26.55594], [75.10528, 26.55599], [75.11688, 26.52358], [75.15385, 26.50018], [75.17096, 26.46209], [75.20657, 26.51566], [75.28772, 26.56404], [75.33192, 26.55817], [75.35309, 26.50158], [75.39116, 26.48201], [75.45374, 26.49323], [75.57486, 26.44625], [75.64442, 26.4425], [75.66554, 26.46091], [75.71323, 26.44492], [75.76868, 26.46585], [75.78684, 26.5241], [75.975, 26.50228], [76.00965, 26.49199], [76.0732, 26.50749], [76.11385, 26.5354], [76.16141, 26.51475], [76.15426, 26.56754], [76.18378, 26.6505], [76.17151, 26.6786], [76.21264, 26.71923], [76.17448, 26.75494], [76.19024, 26.79495], [76.24214, 26.82108], [76.25475, 26.88784], [76.23431, 26.90979], [76.25558, 27.00877], [76.28922, 27.0872], [76.28165, 27.17989], [76.20418, 27.11894], [76.18592, 27.1846], [76.12551, 27.23814], [76.17716, 27.31258], [76.23476, 27.41759], [76.24794, 27.48844], [76.21814, 27.55282], [76.2034, 27.62205], [76.24255, 27.62459], [76.26049, 27.7], [76.24703, 27.76128], [76.27836, 27.80271], [76.26874, 27.83484], [76.22686, 27.83324], [76.18375, 27.79776], [76.08765, 27.84794]]]}}, {"type": "Feature", "properties": {"DISTRICT": "Jaisalmer", "Name_capitalized": "JAISALMER", "Unique_ID": 515, "Unique_ID_1": "IND-ADM2-76128533B27408876", "Shape_Length": 11.0221929612828, "Shape_Area": 3.50115647755}, "geometry": {"type": "Polygon", "coordinates": [[[71.89833, 27.96125], [71.66652, 27.8778], [71.38384, 27.8726], [71.20566, 27.83539], [70.90647, 27.70961], [70.87168, 27.70563], [70.75947, 27.72125], [70.68429, 27.82829], [70.67733, 27.92197], [70.58927, 28.01057], [70.50668, 28.0371], [70.37233, 28.01187], [70.29716, 27.93683], [70.22686, 27.9013], [70.14531, 27.8204], [70.12315, 27.78755], [70.02542, 27.5621], [69.93377, 27.49786], [69.86218, 27.40162], [69.7604, 27.32119], [69.70501, 27.28619], [69.64275, 27.22341], [69.58663, 27.18317], [69.51354, 27.01023], [69.49857, 26.87198], [69.48475, 26.80504], [69.5103, 26.74375], [69.72589, 26.65209], [69.78743, 26.60153], [69.895, 26.57879], [70.05595, 26.60091], [70.11776, 26.58701], [70.17416, 26.55171], [70.1849, 26.48095], [70.17718, 26.42397], [70.18561, 26.37353], [70.16355, 26.29445], [70.1752, 26.25123], [70.14239, 26.15864], [70.17998, 26.15635], [70.22586, 26.12296], [70.26681, 26.16566], [70.36809, 26.14839], [70.4118, 26.20069], [70.43269, 26.18136], [70.49643, 26.17675], [70.56848, 26.20274], [70.6624, 26.20019], [70.71769, 26.21233], [70.7121, 26.17243], [70.75321, 26.14943], [70.8786, 26.12833], [70.94434, 26.08248], [71.02686, 26.11546], [71.05274, 26.14253], [70.99516, 26.2216], [70.95532, 26.24925], [71.02148, 26.2836], [71.04915, 26.28453], [71.07871, 26.32539], [71.14034, 26.30896], [71.22307, 26.44667], [71.29023, 26.4667], [71.3267, 26.42569], [71.41833, 26.48661], [71.46584, 26.49802], [71.49189, 26.45702], [71.52099, 26.48846], [71.57907, 26.50827], [71.61561, 26.48241], [71.6298, 26.42015], [71.67707, 26.38489], [71.70695, 26.39064], [71.75856, 26.34753], [71.81268, 26.33246], [71.84375, 26.37397], [71.88593, 26.34098], [71.8961, 26.30031], [71.9846, 26.32257], [72.02577, 26.34652], [72.07401, 26.34956], [72.08332, 26.44308], [72.02842, 26.49878], [72.09984, 26.60047], [72.04101, 26.67545], [72.07011, 26.71883], [72.0555, 26.80319], [72.10055, 26.83016], [72.10493, 26.88699], [72.04124, 26.93585], [72.04557, 27.02097], [72.08013, 27.07698], [72.0781, 27.11667], [71.96907, 27.1396], [71.95671, 27.18251], [71.91692, 27.21131], [71.79002, 27.25589], [71.79487, 27.28802], [71.83026, 27.32903], [71.81588, 27.4417], [71.83957, 27.47854], [71.88369, 27.48457], [71.93218, 27.55917], [71.96788, 27.54977], [72.05127, 27.61448], [72.14671, 27.53245], [72.17678, 27.46182], [72.24676, 27.49765], [72.25284, 27.53335], [72.28537, 27.54877], [72.34443, 27.69184], [72.30116, 27.70764], [72.22776, 27.65716], [72.19415, 27.69338], [72.11864, 27.71038], [72.09499, 27.73611], [72.15688, 27.77969], [72.14688, 27.87267], [72.03361, 27.94929], [71.99478, 27.9431], [71.95347, 27.91194], [71.89833, 27.96125]]]}}, {"type": "Feature", "properties": {"DISTRICT": "Jalor", "Name_capitalized": "JALOR", "Unique_ID": 537, "Unique_ID_1": "IND-ADM2-76128533B24677521", "Shape_Length": 6.73132863462844, "Shape_Area": 0.960975223100007}, "geometry": {"type": "Polygon", "coordinates": [[[72.33599, 24.62507], [72.31297, 24.6493], [72.32771, 24.70177], [72.37419, 24.76147], [72.48531, 24.75183], [72.50148, 24.81845], [72.48513, 24.8704], [72.50543, 24.92032], [72.58237, 24.94152], [72.65949, 25.04089], [72.68863, 25.04671], [72.71028, 25.10732], [72.73925, 25.12807], [72.78034, 25.2162], [72.82876, 25.28734], [72.8924, 25.24655], [72.94132, 25.24393], [72.9945, 25.25771], [72.99903, 25.28904], [72.97365, 25.37169], [73.0426, 25.39137], [73.09804, 25.4683], [73.05935, 25.5081], [73.05752, 25.56046], [72.93625, 25.639], [72.89014, 25.73477], [72.77897, 25.80169], [72.7578, 25.80895], [72.72543, 25.75564], [72.75648, 25.74161], [72.72291, 25.6895], [72.68767, 25.67003], [72.72167, 25.60917], [72.5872, 25.60223], [72.55007, 25.56107], [72.56313, 25.53153], [72.51286, 25.50615], [72.46423, 25.45456], [72.41272, 25.43631], [72.3575, 25.45384], [72.33338, 25.40352], [72.29452, 25.39173], [72.25148, 25.41635], [72.22427, 25.40569], [72.16171, 25.43445], [72.10543, 25.42463], [72.09025, 25.46552], [72.03473, 25.47635], [72.00165, 25.44541], [71.92208, 25.34516], [71.9513, 25.32149], [71.93589, 25.28457], [71.89004, 25.26224], [71.88216, 25.22512], [71.85084, 25.20734], [71.83919, 25.14853], [71.79396, 25.08449], [71.73819, 25.06948], [71.72844, 25.03214], [71.68082, 24.98742], [71.6351, 25.03294], [71.59001, 25.02646], [71.55766, 24.98489], [71.50953, 25.00882], [71.3423, 24.93447], [71.33174, 24.85098], [71.25583, 24.79577], [71.26301, 24.74519], [71.21093, 24.69928], [71.1894, 24.64876], [71.29031, 24.61308], [71.34958, 24.6593], [71.37592, 24.62682], [71.48166, 24.67865], [71.61032, 24.67503], [71.65534, 24.63744], [71.71033, 24.65834], [71.79328, 24.67426], [71.80598, 24.6255], [71.86308, 24.62698], [71.86562, 24.67573], [71.90673, 24.67298], [71.92911, 24.63014], [71.9881, 24.65625], [71.98898, 24.68067], [72.04762, 24.70875], [72.08048, 24.69986], [72.08001, 24.65558], [72.14599, 24.63673], [72.18122, 24.61195], [72.22548, 24.63527], [72.31076, 24.61102], [72.33599, 24.62507]]]}}, {"type": "Feature", "properties": {"DISTRICT": "Jhalawar", "Name_capitalized": "JHALAWAR", "Unique_ID": 647, "Unique_ID_1": "IND-ADM2-76128533B74586136", "Shape_Length": 6.72635055254135, "Shape_Area": 0.556475877900003}, "geometry": {"type": "Polygon", "coordinates": [[[75.68692, 23.75718], [75.72474, 23.82346], [75.73089, 23.89861], [75.78264, 23.85119], [75.85631, 23.89063], [75.88155, 23.88098], [75.97897, 23.92928], [75.9834, 23.9707], [75.96341, 24.02167], [76.03009, 24.04671], [76.04677, 24.07019], [76.13828, 24.09146], [76.12706, 24.20151], [76.15824, 24.23985], [76.14604, 24.27721], [76.19856, 24.28084], [76.21942, 24.21288], [76.28035, 24.21254], [76.32192, 24.24712], [76.35711, 24.2449], [76.41859, 24.2034], [76.46767, 24.22487], [76.51266, 24.19618], [76.52165, 24.16255], [76.5841, 24.17662], [76.57587, 24.2094], [76.62086, 24.25872], [76.68335, 24.26649], [76.70711, 24.24466], [76.67873, 24.18933], [76.72528, 24.15762], [76.77351, 24.16057], [76.79558, 24.12167], [76.88199, 24.13205], [76.90474, 24.127], [76.92099, 24.18457], [76.94877, 24.19469], [76.87484, 24.27238], [76.84981, 24.32375], [76.85663, 24.36598], [76.84618, 24.43852], [76.80125, 24.43305], [76.75763, 24.4487], [76.70632, 24.40827], [76.67631, 24.43926], [76.63669, 24.41433], [76.58093, 24.46455], [76.57936, 24.49248], [76.53771, 24.51428], [76.53899, 24.56887], [76.52237, 24.59019], [76.5321, 24.66263], [76.47976, 24.66456], [76.44388, 24.78323], [76.4455, 24.83082], [76.40063, 24.83824], [76.36613, 24.87129], [76.31444, 24.84021], [76.22816, 24.83223], [76.20519, 24.75987], [76.18945, 24.62416], [76.11539, 24.69332], [76.0695, 24.67577], [76.06584, 24.62342], [76.08248, 24.57684], [76.0353, 24.55936], [75.96518, 24.56243], [75.92425, 24.53989], [75.90698, 24.44227], [75.83245, 24.41871], [75.78951, 24.45462], [75.73909, 24.3997], [75.74112, 24.34427], [75.76828, 24.30696], [75.81627, 24.29693], [75.8085, 24.22601], [75.78196, 24.22073], [75.74646, 24.13597], [75.79262, 24.10616], [75.83372, 24.10427], [75.83255, 24.06831], [75.78257, 24.05847], [75.76487, 23.99439], [75.70311, 23.96555], [75.67192, 24.03003], [75.63734, 23.99635], [75.57424, 24.01396], [75.51681, 24.04532], [75.46704, 23.97739], [75.46241, 23.91451], [75.48965, 23.90751], [75.56294, 23.85659], [75.5598, 23.81806], [75.65425, 23.79856], [75.68692, 23.75718]]]}}, {"type": "Feature", "properties": {"DISTRICT": "Jhunjhunun", "Name_capitalized": "JHUNJHUNUN", "Unique_ID": 514, "Unique_ID_1": "IND-ADM2-76128533B64990189", "Shape_Length": 4.72361365363632, "Shape_Area": 0.54144614175}, "geometry": {"type": "Polygon", "coordinates": [[[75.67301, 28.5166], [75.61691, 28.50541], [75.57264, 28.37772], [75.51966, 28.36955], [75.5096, 28.33996], [75.38401, 28.33781], [75.2804, 28.44952], [75.23562, 28.45535], [75.21941, 28.39036], [75.16812, 28.37908], [75.14983, 28.2916], [75.05117, 28.25303], [75.03049, 28.19811], [75.07531, 28.1921], [75.09055, 28.1594], [75.12965, 28.13481], [75.10367, 28.06427], [75.14944, 28.0257], [75.19629, 27.9105], [75.23104, 27.87769], [75.24284, 27.81044], [75.28847, 27.81611], [75.29023, 27.716], [75.35078, 27.70024], [75.41887, 27.64397], [75.53734, 27.70912], [75.62066, 27.70276], [75.6381, 27.71621], [75.68989, 27.67352], [75.71251, 27.75603], [75.7708, 27.83344], [75.93433, 27.92897], [75.97379, 27.93215], [75.96588, 27.99629], [75.9778, 28.03134], [76.01726, 28.03047], [76.04164, 28.07401], [75.98424, 28.08131], [75.94658, 28.10727], [76.03264, 28.16781], [76.07148, 28.1651], [76.01385, 28.24599], [76.02717, 28.27498], [75.93383, 28.33655], [75.89722, 28.39002], [75.77718, 28.40413], [75.78916, 28.4535], [75.73654, 28.46878], [75.67301, 28.5166]]]}}, {"type": "Feature", "properties": {"DISTRICT": "Jodhpur", "Name_capitalized": "JODHPUR", "Unique_ID": 521, "Unique_ID_1": "IND-ADM2-76128533B24873977", "Shape_Length": 9.49684106410178, "Shape_Area": 2.07439043379999}, "geometry": {"type": "Polygon", "coordinates": [[[72.07401, 26.34956], [72.09895, 26.31912], [72.15442, 26.30838], [72.16077, 26.28111], [72.25627, 26.21056], [72.30971, 26.21686], [72.34171, 26.24455], [72.37554, 26.22557], [72.41064, 26.23911], [72.42831, 26.28655], [72.49291, 26.29939], [72.55352, 26.26463], [72.5974, 26.28], [72.63485, 26.22834], [72.68946, 26.18636], [72.69548, 26.10608], [72.68577, 26.02964], [72.61897, 26.00678], [72.61994, 25.97812], [72.69284, 25.92984], [72.72595, 25.92139], [72.80731, 25.85302], [72.83552, 25.86322], [72.84326, 25.89087], [72.95927, 25.90186], [72.97566, 25.93531], [73.05116, 25.96782], [73.06004, 26.01233], [73.16638, 26.03346], [73.20857, 26.07685], [73.31751, 26.03428], [73.36009, 26.07536], [73.34206, 26.11736], [73.37793, 26.15647], [73.43172, 26.12993], [73.46751, 26.0854], [73.53053, 26.06371], [73.52375, 26.10307], [73.57785, 26.11579], [73.62983, 26.14715], [73.65418, 26.12639], [73.65125, 26.07823], [73.69678, 26.06376], [73.73519, 26.11344], [73.80469, 26.09745], [73.78712, 26.16341], [73.80568, 26.20696], [73.79121, 26.23625], [73.81471, 26.28712], [73.81828, 26.35775], [73.87421, 26.43059], [73.85773, 26.46736], [73.75623, 26.54076], [73.72188, 26.55212], [73.67376, 26.67831], [73.65091, 26.7101], [73.6729, 26.75181], [73.65613, 26.80787], [73.58878, 26.86337], [73.53148, 26.85856], [73.5134, 26.88092], [73.43808, 26.88674], [73.32831, 26.85673], [73.21428, 26.86859], [73.17973, 26.92698], [73.12395, 26.94406], [73.15899, 27.02498], [73.19308, 27.05646], [73.15321, 27.12088], [73.16698, 27.16146], [73.13319, 27.23522], [73.16425, 27.29488], [73.1465, 27.39019], [73.12182, 27.40813], [73.04368, 27.41045], [72.98879, 27.38389], [72.90335, 27.41519], [72.88385, 27.47697], [72.83199, 27.46618], [72.83677, 27.57972], [72.72927, 27.55359], [72.69729, 27.60443], [72.67254, 27.54258], [72.62554, 27.57113], [72.60515, 27.60666], [72.56144, 27.61849], [72.50292, 27.58363], [72.45071, 27.58581], [72.43877, 27.56159], [72.32813, 27.5137], [72.2676, 27.45746], [72.25312, 27.5073], [72.28537, 27.54877], [72.25284, 27.53335], [72.24676, 27.49765], [72.17678, 27.46182], [72.14671, 27.53245], [72.05127, 27.61448], [71.96788, 27.54977], [71.93218, 27.55917], [71.88369, 27.48457], [71.83957, 27.47854], [71.81588, 27.4417], [71.83026, 27.32903], [71.79487, 27.28802], [71.79002, 27.25589], [71.91692, 27.21131], [71.95671, 27.18251], [71.96907, 27.1396], [72.0781, 27.11667], [72.08013, 27.07698], [72.04557, 27.02097], [72.04124, 26.93585], [72.10493, 26.88699], [72.10055, 26.83016], [72.0555, 26.80319], [72.07011, 26.71883], [72.04101, 26.67545], [72.09984, 26.60047], [72.02842, 26.49878], [72.08332, 26.44308], [72.07401, 26.34956]]]}}, {"type": "Feature", "properties": {"DISTRICT": "Karauli", "Name_capitalized": "KARAULI", "Unique_ID": 653, "Unique_ID_1": "IND-ADM2-76128533B7936996", "Shape_Length": 4.30058187788726, "Shape_Area": 0.44061927345}, "geometry": {"type": "Polygon", "coordinates": [[[77.11451, 26.21636], [77.13685, 26.23441], [77.20155, 26.23022], [77.2705, 26.26768], [77.31574, 26.30967], [77.32597, 26.34069], [77.37394, 26.36615], [77.34859, 26.41431], [77.31161, 26.43964], [77.26332, 26.42875], [77.22782, 26.53102], [77.35879, 26.59386], [77.38847, 26.63349], [77.3497, 26.71156], [77.35899, 26.79507], [77.29486, 26.77962], [77.25973, 26.81862], [77.21106, 26.80975], [77.13633, 26.83886], [77.10609, 26.87381], [77.07825, 26.86073], [76.9578, 26.81522], [76.9437, 26.91032], [76.90172, 26.94315], [76.82608, 26.96651], [76.76243, 26.90062], [76.76835, 26.87724], [76.70317, 26.8439], [76.6193, 26.77643], [76.54082, 26.77229], [76.49515, 26.72963], [76.46996, 26.66918], [76.56555, 26.6103], [76.62111, 26.61418], [76.65087, 26.56432], [76.73874, 26.53242], [76.81954, 26.58899], [76.8623, 26.60126], [76.92671, 26.54827], [76.89455, 26.52124], [76.93748, 26.47499], [76.87109, 26.43182], [76.74532, 26.32006], [76.65345, 26.28472], [76.6244, 26.24904], [76.62957, 26.14242], [76.6786, 26.16206], [76.77835, 26.1128], [76.84762, 26.03276], [76.90221, 26.09295], [76.94567, 26.10098], [77.00153, 26.13264], [77.05397, 26.18006], [77.09183, 26.18197], [77.11451, 26.21636]]]}}, {"type": "Feature", "properties": {"DISTRICT": "Kota", "Name_capitalized": "KOTA", "Unique_ID": 529, "Unique_ID_1": "IND-ADM2-76128533B13229440", "Shape_Length": 5.59698379512507, "Shape_Area": 0.47205034655}, "geometry": {"type": "Polygon", "coordinates": [[[75.92425, 24.53989], [75.96518, 24.56243], [76.0353, 24.55936], [76.08248, 24.57684], [76.06584, 24.62342], [76.0695, 24.67577], [76.11539, 24.69332], [76.18945, 24.62416], [76.20519, 24.75987], [76.22816, 24.83223], [76.31444, 24.84021], [76.36613, 24.87129], [76.40063, 24.83824], [76.4455, 24.83082], [76.44388, 24.78323], [76.49113, 24.82216], [76.55765, 24.80421], [76.57623, 24.85846], [76.48736, 24.92055], [76.45289, 24.92275], [76.42224, 24.9773], [76.3411, 24.98379], [76.32496, 24.95901], [76.24841, 25.041], [76.21884, 25.0844], [76.23562, 25.16046], [76.25554, 25.18904], [76.2547, 25.23791], [76.28885, 25.24673], [76.332, 25.37459], [76.37208, 25.38872], [76.44177, 25.37948], [76.45005, 25.39954], [76.56231, 25.41411], [76.57996, 25.43202], [76.52608, 25.52525], [76.51559, 25.57512], [76.51672, 25.66811], [76.48834, 25.71341], [76.53257, 25.72629], [76.53542, 25.79319], [76.57297, 25.83486], [76.50065, 25.84301], [76.44659, 25.76949], [76.36513, 25.73856], [76.34991, 25.7031], [76.30751, 25.66681], [76.29348, 25.54491], [76.27559, 25.51113], [76.20983, 25.48446], [76.17615, 25.43858], [76.13168, 25.34405], [76.11376, 25.32885], [76.02576, 25.31457], [76.03418, 25.27716], [75.98191, 25.24023], [75.95047, 25.27581], [75.90319, 25.23447], [75.83761, 25.2402], [75.79478, 25.25814], [75.77916, 25.19685], [75.73705, 25.16577], [75.75896, 25.11149], [75.74395, 25.07227], [75.69696, 25.03041], [75.62496, 24.99643], [75.6674, 24.945], [75.76194, 24.87658], [75.82269, 24.86711], [75.78994, 24.76162], [75.84256, 24.72594], [75.8319, 24.66432], [75.85625, 24.61042], [75.92425, 24.53989]]]}}, {"type": "Feature", "properties": {"DISTRICT": "Nagaur", "Name_capitalized": "NAGAUR", "Unique_ID": 518, "Unique_ID_1": "IND-ADM2-76128533B41906208", "Shape_Length": 8.57435979557927, "Shape_Area": 1.6085295261}, "geometry": {"type": "Polygon", "coordinates": [[[74.68206, 27.66723], [74.62932, 27.64824], [74.6078, 27.67635], [74.49659, 27.66564], [74.4431, 27.6916], [74.34481, 27.67939], [74.27698, 27.61028], [74.23972, 27.52646], [74.20706, 27.5061], [74.20573, 27.42381], [74.15517, 27.41059], [74.13833, 27.46064], [74.08321, 27.47907], [74.03133, 27.5349], [73.97484, 27.50597], [73.90324, 27.49631], [73.85267, 27.55111], [73.7819, 27.50877], [73.743, 27.54267], [73.69267, 27.52513], [73.66863, 27.55778], [73.6194, 27.54215], [73.60884, 27.49252], [73.54087, 27.49408], [73.5073, 27.43381], [73.49579, 27.36046], [73.50535, 27.33339], [73.3865, 27.2692], [73.33431, 27.1993], [73.26486, 27.28489], [73.24356, 27.32609], [73.20944, 27.27781], [73.16425, 27.29488], [73.13319, 27.23522], [73.16698, 27.16146], [73.15321, 27.12088], [73.19308, 27.05646], [73.15899, 27.02498], [73.12395, 26.94406], [73.17973, 26.92698], [73.21428, 26.86859], [73.32831, 26.85673], [73.43808, 26.88674], [73.5134, 26.88092], [73.53148, 26.85856], [73.58878, 26.86337], [73.65613, 26.80787], [73.6729, 26.75181], [73.65091, 26.7101], [73.67376, 26.67831], [73.72188, 26.55212], [73.75623, 26.54076], [73.85773, 26.46736], [73.87421, 26.43059], [73.95923, 26.41937], [74.07086, 26.42305], [74.10053, 26.44652], [74.17578, 26.42137], [74.23921, 26.46139], [74.29181, 26.44908], [74.33848, 26.44298], [74.37643, 26.48886], [74.48224, 26.4975], [74.59431, 26.62916], [74.61969, 26.56594], [74.67495, 26.59405], [74.72291, 26.67569], [74.72457, 26.70194], [74.66639, 26.71142], [74.69882, 26.77121], [74.75039, 26.77055], [74.78208, 26.7987], [74.77513, 26.84881], [74.8058, 26.85273], [74.85309, 26.9751], [74.91238, 26.97592], [74.98443, 26.94124], [74.97778, 26.89033], [75.01531, 26.89501], [75.01458, 26.94531], [75.16654, 26.93292], [75.20489, 26.97363], [75.20536, 27.00707], [75.24403, 27.01645], [75.22206, 27.08282], [75.34098, 27.09354], [75.34232, 27.13994], [75.31715, 27.1592], [75.30207, 27.12911], [75.17947, 27.14092], [75.07286, 27.21939], [75.16482, 27.2997], [75.11691, 27.34444], [75.11912, 27.37654], [75.07468, 27.38532], [75.01044, 27.34686], [74.94791, 27.34633], [74.89952, 27.32986], [74.87478, 27.37203], [74.8582, 27.45032], [74.80416, 27.44979], [74.79967, 27.48224], [74.7241, 27.50121], [74.71738, 27.5375], [74.76254, 27.56763], [74.68206, 27.66723]]]}}, {"type": "Feature", "properties": {"DISTRICT": "Pali", "Name_capitalized": "PALI", "Unique_ID": 530, "Unique_ID_1": "IND-ADM2-76128533B52519065", "Shape_Length": 7.9201967723433, "Shape_Area": 1.11109891079999}, "geometry": {"type": "Polygon", "coordinates": [[[73.87421, 26.43059], [73.81828, 26.35775], [73.81471, 26.28712], [73.79121, 26.23625], [73.80568, 26.20696], [73.78712, 26.16341], [73.80469, 26.09745], [73.73519, 26.11344], [73.69678, 26.06376], [73.65125, 26.07823], [73.65418, 26.12639], [73.62983, 26.14715], [73.57785, 26.11579], [73.52375, 26.10307], [73.53053, 26.06371], [73.46751, 26.0854], [73.43172, 26.12993], [73.37793, 26.15647], [73.34206, 26.11736], [73.36009, 26.07536], [73.31751, 26.03428], [73.20857, 26.07685], [73.16638, 26.03346], [73.06004, 26.01233], [73.05116, 25.96782], [72.97566, 25.93531], [72.95927, 25.90186], [72.84326, 25.89087], [72.83552, 25.86322], [72.84979, 25.84192], [72.77897, 25.80169], [72.89014, 25.73477], [72.93625, 25.639], [73.05752, 25.56046], [73.05935, 25.5081], [73.09804, 25.4683], [73.0426, 25.39137], [72.97365, 25.37169], [72.99903, 25.28904], [72.9945, 25.25771], [72.94132, 25.24393], [72.97416, 25.19314], [72.9564, 25.14218], [73.00004, 25.14413], [73.00244, 25.10129], [73.05104, 25.10443], [73.0579, 25.15939], [73.11979, 25.1079], [73.13252, 25.06476], [73.10912, 25.03718], [73.04899, 25.00488], [73.00916, 24.92183], [73.02939, 24.88796], [73.10305, 24.84535], [73.14414, 24.84325], [73.16395, 24.78149], [73.14595, 24.75792], [73.23218, 24.79378], [73.24045, 24.83041], [73.32881, 24.90882], [73.34725, 24.96077], [73.34566, 25.01038], [73.42462, 25.09012], [73.46303, 25.08967], [73.5044, 25.11798], [73.60248, 25.20359], [73.61319, 25.28648], [73.67019, 25.3462], [73.73471, 25.38235], [73.78045, 25.4825], [73.80842, 25.51125], [73.86576, 25.65109], [73.90727, 25.68539], [73.90768, 25.74057], [73.9333, 25.76992], [73.95209, 25.84099], [74.00995, 25.8636], [74.05734, 25.82905], [74.10009, 25.84692], [74.13134, 25.88345], [74.16138, 25.92883], [74.13248, 25.9634], [74.184, 26.02962], [74.2221, 26.04172], [74.28861, 26.12088], [74.30366, 26.185], [74.37774, 26.20648], [74.36565, 26.29159], [74.3119, 26.25183], [74.25459, 26.28635], [74.30655, 26.33156], [74.29181, 26.44908], [74.23921, 26.46139], [74.17578, 26.42137], [74.10053, 26.44652], [74.07086, 26.42305], [73.95923, 26.41937], [73.87421, 26.43059]]]}}, {"type": "Feature", "properties": {"DISTRICT": "Pratapgarh", "Name_capitalized": "PRATAPGARH", "Unique_ID": 524, "Unique_ID_1": "IND-ADM2-76128533B32371044", "Shape_Length": 3.96316338762642, "Shape_Area": 0.381590764000001}, "geometry": {"type": "Polygon", "coordinates": [[[74.94086, 23.76307], [74.91125, 23.79807], [74.90667, 23.87113], [74.94264, 23.95766], [74.99436, 24.02677], [74.92213, 24.07807], [74.89708, 24.18678], [74.89578, 24.25878], [74.81649, 24.2742], [74.77378, 24.26922], [74.7884, 24.36885], [74.85916, 24.4486], [74.82403, 24.48493], [74.75883, 24.48603], [74.7148, 24.50633], [74.54364, 24.50298], [74.54361, 24.45363], [74.50089, 24.40361], [74.52122, 24.33221], [74.48867, 24.27907], [74.47036, 24.22159], [74.43929, 24.23551], [74.36341, 24.17883], [74.3776, 24.15562], [74.43767, 24.12221], [74.39057, 24.07478], [74.36414, 24.08354], [74.32715, 24.04656], [74.26116, 24.00745], [74.28767, 23.95718], [74.36791, 23.9338], [74.3851, 23.90611], [74.43506, 23.9064], [74.48085, 23.92443], [74.54722, 23.86203], [74.54705, 23.70982], [74.53164, 23.63545], [74.59043, 23.62606], [74.67416, 23.66557], [74.72253, 23.61502], [74.77392, 23.58908], [74.77434, 23.54077], [74.80324, 23.53149], [74.85197, 23.55479], [74.90652, 23.62208], [74.9112, 23.68524], [74.94146, 23.7321], [74.94086, 23.76307]]]}}, {"type": "Feature", "properties": {"DISTRICT": "Rajsamand", "Name_capitalized": "RAJSAMAND", "Unique_ID": 531, "Unique_ID_1": "IND-ADM2-76128533B36841790", "Shape_Length": 5.4562311649776, "Shape_Area": 0.4213714279}, "geometry": {"type": "Polygon", "coordinates": [[[74.38997, 25.96242], [74.39182, 26.0055], [74.34695, 26.02274], [74.29364, 25.98129], [74.23701, 25.90735], [74.19147, 25.88737], [74.13134, 25.88345], [74.10009, 25.84692], [74.05734, 25.82905], [74.09435, 25.76724], [74.00033, 25.72648], [74.01387, 25.70385], [73.95011, 25.65079], [73.90727, 25.68539], [73.86576, 25.65109], [73.80842, 25.51125], [73.78045, 25.4825], [73.73471, 25.38235], [73.67019, 25.3462], [73.61319, 25.28648], [73.60248, 25.20359], [73.5044, 25.11798], [73.50191, 25.05377], [73.52437, 25.03167], [73.50808, 24.97579], [73.56264, 24.93421], [73.61206, 24.87214], [73.66516, 24.87819], [73.70297, 24.8568], [73.69584, 24.79953], [73.75749, 24.73884], [73.79725, 24.74505], [73.85636, 24.88693], [73.93207, 24.88172], [73.95932, 24.85423], [74.00288, 24.89241], [74.04654, 24.83301], [74.12256, 24.85204], [74.18916, 24.93], [74.2008, 24.97886], [74.27206, 24.99187], [74.32078, 25.03222], [74.26054, 25.06529], [74.21762, 25.04851], [74.18989, 25.06034], [74.18268, 25.11291], [74.06654, 25.15728], [74.10285, 25.18526], [74.12501, 25.2424], [74.05119, 25.23649], [74.02799, 25.27233], [74.03316, 25.38523], [74.05957, 25.43962], [74.02436, 25.45322], [74.09951, 25.51516], [74.0672, 25.58008], [74.10618, 25.59192], [74.11835, 25.63641], [74.09509, 25.67349], [74.09937, 25.71622], [74.19694, 25.73942], [74.20008, 25.79887], [74.164, 25.80742], [74.19903, 25.85438], [74.22576, 25.84366], [74.30404, 25.89359], [74.32912, 25.93001], [74.38997, 25.96242]]]}}, {"type": "Feature", "properties": {"DISTRICT": "Sawai Madhopur", "Name_capitalized": "SAWAI MADHOPUR", "Unique_ID": 651, "Unique_ID_1": "IND-ADM2-76128533B41920595", "Shape_Length": 4.53473567637625, "Shape_Area": 0.452906842299998}, "geometry": {"type": "Polygon", "coordinates": [[[76.84762, 26.03276], [76.77835, 26.1128], [76.6786, 26.16206], [76.62957, 26.14242], [76.6244, 26.24904], [76.65345, 26.28472], [76.74532, 26.32006], [76.87109, 26.43182], [76.93748, 26.47499], [76.89455, 26.52124], [76.92671, 26.54827], [76.8623, 26.60126], [76.81954, 26.58899], [76.73874, 26.53242], [76.65087, 26.56432], [76.62111, 26.61418], [76.56555, 26.6103], [76.46996, 26.66918], [76.4076, 26.55275], [76.44537, 26.55048], [76.48242, 26.49866], [76.44472, 26.44146], [76.39445, 26.38804], [76.34314, 26.4105], [76.32381, 26.45425], [76.25125, 26.44085], [76.18141, 26.48574], [76.15902, 26.44028], [76.13153, 26.34488], [76.14862, 26.30821], [76.10448, 26.2392], [76.03084, 26.25194], [75.99338, 26.22019], [76.00607, 26.1626], [75.99527, 26.1157], [76.03087, 26.11028], [76.06956, 26.13038], [76.1169, 26.0564], [76.07725, 26.01357], [76.14691, 25.96625], [76.1908, 26.01105], [76.25118, 26.0195], [76.25027, 25.91359], [76.21972, 25.91208], [76.22304, 25.86229], [76.27626, 25.82392], [76.32279, 25.80913], [76.36513, 25.73856], [76.44659, 25.76949], [76.50065, 25.84301], [76.57297, 25.83486], [76.64778, 25.90136], [76.7398, 25.89763], [76.8014, 25.93924], [76.84696, 26.00626], [76.84762, 26.03276]]]}}, {"type": "Feature", "properties": {"DISTRICT": "Sikar", "Name_capitalized": "SIKAR", "Unique_ID": 516, "Unique_ID_1": "IND-ADM2-76128533B36647190", "Shape_Length": 6.41978951930123, "Shape_Area": 0.70222969745}, "geometry": {"type": "Polygon", "coordinates": [[[75.93433, 27.92897], [75.7708, 27.83344], [75.71251, 27.75603], [75.68989, 27.67352], [75.6381, 27.71621], [75.62066, 27.70276], [75.53734, 27.70912], [75.41887, 27.64397], [75.35078, 27.70024], [75.29023, 27.716], [75.28847, 27.81611], [75.24284, 27.81044], [75.23104, 27.87769], [75.19629, 27.9105], [75.14944, 28.0257], [75.10367, 28.06427], [75.12965, 28.13481], [75.09055, 28.1594], [75.07531, 28.1921], [75.03049, 28.19811], [74.94904, 28.18725], [74.89358, 28.19183], [74.86904, 28.14511], [74.78899, 28.07776], [74.80929, 28.05826], [74.78217, 27.9556], [74.82204, 27.93798], [74.80186, 27.89633], [74.73929, 27.88914], [74.74166, 27.85516], [74.79777, 27.83689], [74.8183, 27.79968], [74.74231, 27.76445], [74.73201, 27.676], [74.68206, 27.66723], [74.76254, 27.56763], [74.71738, 27.5375], [74.7241, 27.50121], [74.79967, 27.48224], [74.80416, 27.44979], [74.8582, 27.45032], [74.87478, 27.37203], [74.89952, 27.32986], [74.94791, 27.34633], [75.01044, 27.34686], [75.07468, 27.38532], [75.11912, 27.37654], [75.11691, 27.34444], [75.16482, 27.2997], [75.07286, 27.21939], [75.17947, 27.14092], [75.30207, 27.12911], [75.31715, 27.1592], [75.31808, 27.1938], [75.37839, 27.23323], [75.39597, 27.28256], [75.43315, 27.30107], [75.47757, 27.28922], [75.53176, 27.34392], [75.57315, 27.3419], [75.61474, 27.31477], [75.66627, 27.36586], [75.72586, 27.36921], [75.74054, 27.40421], [75.79482, 27.38083], [75.87155, 27.41651], [75.93891, 27.49642], [75.96082, 27.59183], [75.94291, 27.62171], [75.98033, 27.65562], [75.99212, 27.70319], [76.03563, 27.73153], [76.09828, 27.83029], [76.08765, 27.84794], [76.04892, 27.83497], [75.97142, 27.85229], [75.98784, 27.90371], [75.93433, 27.92897]]]}}, {"type": "Feature", "properties": {"DISTRICT": "Sirohi", "Name_capitalized": "SIROHI", "Unique_ID": 539, "Unique_ID_1": "IND-ADM2-76128533B4830131", "Shape_Length": 4.02638137533801, "Shape_Area": 0.459631924049997}, "geometry": {"type": "Polygon", "coordinates": [[[73.01017, 24.48271], [73.02795, 24.53153], [73.08418, 24.61162], [73.08516, 24.63665], [73.13919, 24.68797], [73.14595, 24.75792], [73.16395, 24.78149], [73.14414, 24.84325], [73.10305, 24.84535], [73.02939, 24.88796], [73.00916, 24.92183], [73.04899, 25.00488], [73.10912, 25.03718], [73.13252, 25.06476], [73.11979, 25.1079], [73.0579, 25.15939], [73.05104, 25.10443], [73.00244, 25.10129], [73.00004, 25.14413], [72.9564, 25.14218], [72.97416, 25.19314], [72.94132, 25.24393], [72.8924, 25.24655], [72.82876, 25.28734], [72.78034, 25.2162], [72.73925, 25.12807], [72.71028, 25.10732], [72.68863, 25.04671], [72.65949, 25.04089], [72.58237, 24.94152], [72.50543, 24.92032], [72.48513, 24.8704], [72.50148, 24.81845], [72.48531, 24.75183], [72.37419, 24.76147], [72.32771, 24.70177], [72.31297, 24.6493], [72.33599, 24.62507], [72.30967, 24.58753], [72.27484, 24.60224], [72.24645, 24.58248], [72.2906, 24.54061], [72.35363, 24.55452], [72.38199, 24.50243], [72.44399, 24.49506], [72.43241, 24.46227], [72.46038, 24.40879], [72.50585, 24.41989], [72.49646, 24.45188], [72.54071, 24.50833], [72.5847, 24.47386], [72.655, 24.4576], [72.72891, 24.36223], [72.86488, 24.36644], [72.92076, 24.32681], [72.96239, 24.35151], [72.96126, 24.39262], [72.98782, 24.42125], [72.97824, 24.45143], [73.01017, 24.48271]]]}}, {"type": "Feature", "properties": {"DISTRICT": "Tonk", "Name_capitalized": "TONK", "Unique_ID": 526, "Unique_ID_1": "IND-ADM2-76128533B60935252", "Shape_Length": 6.05074610452277, "Shape_Area": 0.65408471555}, "geometry": {"type": "Polygon", "coordinates": [[[75.46531, 25.71855], [75.51231, 25.73664], [75.56491, 25.69689], [75.62336, 25.67712], [75.63257, 25.70892], [75.69579, 25.76046], [75.74804, 25.75083], [75.77416, 25.82264], [75.83531, 25.83464], [75.89485, 25.86892], [75.90634, 25.81461], [75.94817, 25.81622], [75.95812, 25.86473], [76.06217, 25.85973], [76.05511, 25.82008], [76.11544, 25.78767], [76.16725, 25.77546], [76.17231, 25.81303], [76.21499, 25.83847], [76.23251, 25.80456], [76.32279, 25.80913], [76.27626, 25.82392], [76.22304, 25.86229], [76.21972, 25.91208], [76.25027, 25.91359], [76.25118, 26.0195], [76.1908, 26.01105], [76.14691, 25.96625], [76.07725, 26.01357], [76.1169, 26.0564], [76.06956, 26.13038], [76.03087, 26.11028], [75.99527, 26.1157], [76.00607, 26.1626], [75.99338, 26.22019], [76.03084, 26.25194], [76.10448, 26.2392], [76.14862, 26.30821], [76.13153, 26.34488], [76.15902, 26.44028], [76.18141, 26.48574], [76.16141, 26.51475], [76.11385, 26.5354], [76.0732, 26.50749], [76.00965, 26.49199], [75.975, 26.50228], [75.78684, 26.5241], [75.76868, 26.46585], [75.71323, 26.44492], [75.66554, 26.46091], [75.64442, 26.4425], [75.57486, 26.44625], [75.45374, 26.49323], [75.39116, 26.48201], [75.35309, 26.50158], [75.33192, 26.55817], [75.28772, 26.56404], [75.20657, 26.51566], [75.17096, 26.46209], [75.16528, 26.42058], [75.13069, 26.39693], [75.13934, 26.31778], [75.11436, 26.28499], [75.14433, 26.24412], [75.15955, 26.18277], [75.18906, 26.16357], [75.18908, 26.10995], [75.24694, 26.07837], [75.2781, 26.13557], [75.34086, 26.13076], [75.30932, 26.0806], [75.35635, 26.01935], [75.32881, 25.99867], [75.30799, 25.94152], [75.25235, 25.93749], [75.26448, 25.85308], [75.31226, 25.85368], [75.34084, 25.811], [75.32002, 25.76392], [75.4461, 25.74081], [75.46531, 25.71855]]]}}, {"type": "Feature", "properties": {"DISTRICT": "Udaipur", "Name_capitalized": "UDAIPUR", "Unique_ID": 536, "Unique_ID_1": "IND-ADM2-76128533B94709408", "Shape_Length": 6.89359643486114, "Shape_Area": 1.07058514089999}, "geometry": {"type": "Polygon", "coordinates": [[[73.36758, 23.81389], [73.40283, 23.80691], [73.47063, 23.84739], [73.51905, 23.93117], [73.59354, 23.96574], [73.67195, 23.9393], [73.69794, 23.95852], [73.73959, 23.94366], [73.85882, 23.93641], [73.91899, 23.98346], [74.00277, 23.96861], [74.05018, 23.98092], [74.08167, 23.96847], [74.13436, 24.01777], [74.20648, 23.95495], [74.22781, 23.90967], [74.28767, 23.95718], [74.26116, 24.00745], [74.32715, 24.04656], [74.36414, 24.08354], [74.39057, 24.07478], [74.43767, 24.12221], [74.3776, 24.15562], [74.36341, 24.17883], [74.43929, 24.23551], [74.41571, 24.2924], [74.35418, 24.33746], [74.36687, 24.41072], [74.2858, 24.50138], [74.24038, 24.44914], [74.20986, 24.4617], [74.28015, 24.56543], [74.19126, 24.64818], [74.17663, 24.70187], [74.11997, 24.73965], [74.10767, 24.78132], [74.12256, 24.85204], [74.04654, 24.83301], [74.00288, 24.89241], [73.95932, 24.85423], [73.93207, 24.88172], [73.85636, 24.88693], [73.79725, 24.74505], [73.75749, 24.73884], [73.69584, 24.79953], [73.70297, 24.8568], [73.66516, 24.87819], [73.61206, 24.87214], [73.56264, 24.93421], [73.50808, 24.97579], [73.52437, 25.03167], [73.50191, 25.05377], [73.5044, 25.11798], [73.46303, 25.08967], [73.42462, 25.09012], [73.34566, 25.01038], [73.34725, 24.96077], [73.32881, 24.90882], [73.24045, 24.83041], [73.23218, 24.79378], [73.14595, 24.75792], [73.13919, 24.68797], [73.08516, 24.63665], [73.08418, 24.61162], [73.02795, 24.53153], [73.01017, 24.48271], [73.04849, 24.46548], [73.09198, 24.49485], [73.10376, 24.42041], [73.08237, 24.3946], [73.1846, 24.33484], [73.14235, 24.30784], [73.08883, 24.22098], [73.0797, 24.1851], [73.14424, 24.12251], [73.22104, 24.09803], [73.19821, 24.05725], [73.24297, 24.01048], [73.28833, 24.02706], [73.32402, 24.0621], [73.33273, 24.1147], [73.41143, 24.05049], [73.41759, 23.92281], [73.38385, 23.90525], [73.35704, 23.85415], [73.36758, 23.81389]]]}}]}